{"type": "FeatureCollection", "features": [ {"type": "Feature", "properties": {"norad_id": 34553, "name": "COSMOS 2251 DEB", "group": "cosmos-2251-debris", "lat": 34.37719748154511, "lon": -28.019739148790975, "alt_km": 698.8058675513957, "timestamp": "2025-12-27T18:38:03.872415+00:00", "meta": {"OBJECT_NAME": "COSMOS 2251 DEB", "OBJECT_ID": "1993-036UP", "EPOCH": "2025-12-26T10:49:08.948064", "MEAN_MOTION": 14.57851907, "ECCENTRICITY": 0.0019035, "INCLINATION": 74.025, "RA_OF_ASC_NODE": 165.8036, "ARG_OF_PERICENTER": 242.4865, "MEAN_ANOMALY": 147.2003, "EPHEMERIS_TYPE": 0, "CLASSIFICATION_TYPE": "U", "NORAD_CAT_ID": 34553, "ELEMENT_SET_NO": 999, "REV_AT_EPOCH": 88296, "BSTAR": 0.0012095, "MEAN_MOTION_DOT": 5.528e-05, "MEAN_MOTION_DDOT": 0}, "tle": {"line1": "1 34553U 93036UP  25360.45079801  .00005528  00000+0  12095-2 0  9999", "line2": "2 34553  74.0250 165.8036 0019035 242.4865 147.2003 14.57851907882965"}}, "geometry": {"type": "Point", "coordinates": [-28.019739148790975, 34.37719748154511]}}, {"type": "Feature", "properties": {"norad_id": 34554, "name": "COSMOS 2251 DEB", "group": "cosmos-2251-debris", "lat": -69.4908813526277, "lon": 141.21996519731258, "alt_km": 767.4257241101786, "timestamp": "2025-12-27T18:38:03.872425+00:00", "meta": {"OBJECT_NAME": "COSMOS 2251 DEB", "OBJECT_ID": "1993-036UQ", "EPOCH": "2025-12-26T18:12:27.499968", "MEAN_MOTION": 14.37965556, "ECCENTRICITY": 0.00235796, "INCLINATION": 74.039, "RA_OF_ASC_NODE": 273.1783, "ARG_OF_PERICENTER": 332.916, "MEAN_ANOMALY": 57.668, "EPHEMERIS_TYPE": 0, "CLASSIFICATION_TYPE": "U", "NORAD_CAT_ID": 34554, "ELEMENT_SET_NO": 999, "REV_AT_EPOCH": 87957, "BSTAR": 0.00031632746, "MEAN_MOTION_DOT": 9.33e-06, "MEAN_MOTION_DDOT": 0}, "tle": {"line1": "1 34554U 93036UQ  25360.75865162  .00000933  00000+0  31633-3 0  9991", "line2": "2 34554  74.0390 273.1783 0023579 332.9160  57.6680 14.37965556879576"}}, "geometry": {"type": "Point", "coordinates": [141.21996519731258, -69.4908813526277]}}, {"type": "Feature", "properties": {"norad_id": 34556, "name": "COSMOS 2251 DEB", "group": "cosmos-2251-debris", "lat": 58.94738104358286, "lon": 123.72248142686665, "alt_km": 628.7277717350617, "timestamp": "2025-12-27T18:38:03.872436+00:00", "meta": {"OBJECT_NAME": "COSMOS 2251 DEB", "OBJECT_ID": "1993-036US", "EPOCH": "2025-12-27T05:28:06.780864", "MEAN_MOTION": 14.78251509, "ECCENTRICITY": 0.0005991, "INCLINATION": 74.0153, "RA_OF_ASC_NODE": 96.3717, "ARG_OF_PERICENTER": 154.1604, "MEAN_ANOMALY": 230.8121, "EPHEMERIS_TYPE": 0, "CLASSIFICATION_TYPE": "U", "NORAD_CAT_ID": 34556, "ELEMENT_SET_NO": 999, "REV_AT_EPOCH": 88543, "BSTAR": 0.0024654, "MEAN_MOTION_DOT": 0.00017918, "MEAN_MOTION_DDOT": 0}, "tle": {"line1": "1 34556U 93036US  25361.22785626  .00017918  00000+0  24654-2 0  9997", "line2": "2 34556  74.0153  96.3717 0005991 154.1604 230.8121 14.78251509885430"}}, "geometry": {"type": "Point", "coordinates": [123.72248142686665, 58.94738104358286]}}, {"type": "Feature", "properties": {"norad_id": 34560, "name": "COSMOS 2251 DEB", "group": "cosmos-2251-debris", "lat": 7.795578176900728, "lon": 115.08653123196075, "alt_km": 663.959309567902, "timestamp": "2025-12-27T18:38:03.872446+00:00", "meta": {"OBJECT_NAME": "COSMOS 2251 DEB", "OBJECT_ID": "1993-036UW", "EPOCH": "2025-12-27T09:04:13.971072", "MEAN_MOTION": 14.72521543, "ECCENTRICITY": 0.0013451, "INCLINATION": 74.0171, "RA_OF_ASC_NODE": 113.614, "ARG_OF_PERICENTER": 196.1383, "MEAN_ANOMALY": 220.4883, "EPHEMERIS_TYPE": 0, "CLASSIFICATION_TYPE": "U", "NORAD_CAT_ID": 34560, "ELEMENT_SET_NO": 999, "REV_AT_EPOCH": 88467, "BSTAR": 0.0024135, "MEAN_MOTION_DOT": 0.00015358, "MEAN_MOTION_DDOT": 0}, "tle": {"line1": "1 34560U 93036UW  25361.37793948  .00015358  00000+0  24135-2 0  9994", "line2": "2 34560  74.0171 113.6140 0013451 196.1383 220.4883 14.72521543884675"}}, "geometry": {"type": "Point", "coordinates": [115.08653123196075, 7.795578176900728]}}, {"type": "Feature", "properties": {"norad_id": 34563, "name": "COSMOS 2251 DEB", "group": "cosmos-2251-debris", "lat": 1.7716411667843028, "lon": -4.8731258066902585, "alt_km": 739.4102506830341, "timestamp": "2025-12-27T18:38:03.872456+00:00", "meta": {"OBJECT_NAME": "COSMOS 2251 DEB", "OBJECT_ID": "1993-036UZ", "EPOCH": "2025-12-26T18:37:48.023328", "MEAN_MOTION": 14.46553942, "ECCENTRICITY": 0.00139023, "INCLINATION": 74.0365, "RA_OF_ASC_NODE": 177.5011, "ARG_OF_PERICENTER": 270.8505, "MEAN_ANOMALY": 100.91, "EPHEMERIS_TYPE": 0, "CLASSIFICATION_TYPE": "U", "NORAD_CAT_ID": 34563, "ELEMENT_SET_NO": 999, "REV_AT_EPOCH": 88400, "BSTAR": 0.00049252066, "MEAN_MOTION_DOT": 1.75e-05, "MEAN_MOTION_DDOT": 0}, "tle": {"line1": "1 34563U 93036UZ  25360.77625027  .00001750  00000+0  49252-3 0  9991", "line2": "2 34563  74.0365 177.5011 0013902 270.8505 100.9100 14.46553942884006"}}, "geometry": {"type": "Point", "coordinates": [-4.8731258066902585, 1.7716411667843028]}}, {"type": "Feature", "properties": {"norad_id": 34564, "name": "COSMOS 2251 DEB", "group": "cosmos-2251-debris", "lat": 1.7480815010596076, "lon": -149.30736103514306, "alt_km": 749.553963653625, "timestamp": "2025-12-27T18:38:03.872467+00:00", "meta": {"OBJECT_NAME": "COSMOS 2251 DEB", "OBJECT_ID": "1993-036VA", "EPOCH": "2025-12-27T08:52:57.268992", "MEAN_MOTION": 14.40713527, "ECCENTRICITY": 0.0019492, "INCLINATION": 74.0311, "RA_OF_ASC_NODE": 210.9435, "ARG_OF_PERICENTER": 312.8662, "MEAN_ANOMALY": 102.3071, "EPHEMERIS_TYPE": 0, "CLASSIFICATION_TYPE": "U", "NORAD_CAT_ID": 34564, "ELEMENT_SET_NO": 999, "REV_AT_EPOCH": 88217, "BSTAR": 0.00024552, "MEAN_MOTION_DOT": 7.6e-06, "MEAN_MOTION_DDOT": 0}, "tle": {"line1": "1 34564U 93036VA  25361.37010728  .00000760  00000+0  24552-3 0  9991", "line2": "2 34564  74.0311 210.9435 0019492 312.8662 102.3071 14.40713527882171"}}, "geometry": {"type": "Point", "coordinates": [-149.30736103514306, 1.7480815010596076]}}, {"type": "Feature", "properties": {"norad_id": 34567, "name": "COSMOS 2251 DEB", "group": "cosmos-2251-debris", "lat": -43.974548980043366, "lon": -34.25600873627388, "alt_km": 769.9411436383207, "timestamp": "2025-12-27T18:38:03.872477+00:00", "meta": {"OBJECT_NAME": "COSMOS 2251 DEB", "OBJECT_ID": "1993-036VD", "EPOCH": "2025-12-27T11:09:00.670176", "MEAN_MOTION": 14.24033797, "ECCENTRICITY": 0.0074002, "INCLINATION": 74.0414, "RA_OF_ASC_NODE": 130.2785, "ARG_OF_PERICENTER": 201.3269, "MEAN_ANOMALY": 226.43, "EPHEMERIS_TYPE": 0, "CLASSIFICATION_TYPE": "U", "NORAD_CAT_ID": 34567, "ELEMENT_SET_NO": 999, "REV_AT_EPOCH": 87334, "BSTAR": 0.00029991, "MEAN_MOTION_DOT": 6.83e-06, "MEAN_MOTION_DDOT": 0}, "tle": {"line1": "1 34567U 93036VD  25361.46459109  .00000683  00000+0  29991-3 0  9990", "line2": "2 34567  74.0414 130.2785 0074002 201.3269 226.4300 14.24033797873341"}}, "geometry": {"type": "Point", "coordinates": [-34.25600873627388, -43.974548980043366]}}, {"type": "Feature", "properties": {"norad_id": 34569, "name": "COSMOS 2251 DEB", "group": "cosmos-2251-debris", "lat": 67.67912529662658, "lon": -144.67778570607007, "alt_km": 777.6481009627878, "timestamp": "2025-12-27T18:38:03.872488+00:00", "meta": {"OBJECT_NAME": "COSMOS 2251 DEB", "OBJECT_ID": "1993-036VF", "EPOCH": "2025-12-27T06:47:51.643968", "MEAN_MOTION": 14.2478831, "ECCENTRICITY": 0.0157923, "INCLINATION": 73.9895, "RA_OF_ASC_NODE": 171.8379, "ARG_OF_PERICENTER": 356.915, "MEAN_ANOMALY": 66.8709, "EPHEMERIS_TYPE": 0, "CLASSIFICATION_TYPE": "U", "NORAD_CAT_ID": 34569, "ELEMENT_SET_NO": 999, "REV_AT_EPOCH": 87175, "BSTAR": 0.00049613, "MEAN_MOTION_DOT": 1.29e-05, "MEAN_MOTION_DDOT": 0}, "tle": {"line1": "1 34569U 93036VF  25361.28323662  .00001290  00000+0  49613-3 0  9994", "line2": "2 34569  73.9895 171.8379 0157923 356.9150  66.8709 14.24788310871754"}}, "geometry": {"type": "Point", "coordinates": [-144.67778570607007, 67.67912529662658]}}, {"type": "Feature", "properties": {"norad_id": 34570, "name": "COSMOS 2251 DEB", "group": "cosmos-2251-debris", "lat": 73.11881258040847, "lon": -59.36037188573411, "alt_km": 760.062000376829, "timestamp": "2025-12-27T18:38:03.872498+00:00", "meta": {"OBJECT_NAME": "COSMOS 2251 DEB", "OBJECT_ID": "1993-036VG", "EPOCH": "2025-12-27T07:01:34.646304", "MEAN_MOTION": 13.99845423, "ECCENTRICITY": 0.0190361, "INCLINATION": 73.9553, "RA_OF_ASC_NODE": 192.973, "ARG_OF_PERICENTER": 72.2007, "MEAN_ANOMALY": 105.7081, "EPHEMERIS_TYPE": 0, "CLASSIFICATION_TYPE": "U", "NORAD_CAT_ID": 34570, "ELEMENT_SET_NO": 999, "REV_AT_EPOCH": 85804, "BSTAR": 0.00052733, "MEAN_MOTION_DOT": 8.81e-06, "MEAN_MOTION_DDOT": 0}, "tle": {"line1": "1 34570U 93036VG  25361.29276211  .00000881  00000+0  52733-3 0  9996", "line2": "2 34570  73.9553 192.9730 0190361  72.2007 105.7081 13.99845423858047"}}, "geometry": {"type": "Point", "coordinates": [-59.36037188573411, 73.11881258040847]}}, {"type": "Feature", "properties": {"norad_id": 34571, "name": "COSMOS 2251 DEB", "group": "cosmos-2251-debris", "lat": 70.96567405275373, "lon": -149.70205266940906, "alt_km": 734.206636805081, "timestamp": "2025-12-27T18:38:03.872508+00:00", "meta": {"OBJECT_NAME": "COSMOS 2251 DEB", "OBJECT_ID": "1993-036VH", "EPOCH": "2025-12-27T09:58:51.014208", "MEAN_MOTION": 14.49086508, "ECCENTRICITY": 0.0064593, "INCLINATION": 74.04, "RA_OF_ASC_NODE": 154.9258, "ARG_OF_PERICENTER": 186.8499, "MEAN_ANOMALY": 173.1785, "EPHEMERIS_TYPE": 0, "CLASSIFICATION_TYPE": "U", "NORAD_CAT_ID": 34571, "ELEMENT_SET_NO": 999, "REV_AT_EPOCH": 87506, "BSTAR": 0.0033608, "MEAN_MOTION_DOT": 0.00013109, "MEAN_MOTION_DDOT": 0}, "tle": {"line1": "1 34571U 93036VH  25361.41586822  .00013109  00000+0  33608-2 0  9999", "line2": "2 34571  74.0400 154.9258 0064593 186.8499 173.1785 14.49086508875066"}}, "geometry": {"type": "Point", "coordinates": [-149.70205266940906, 70.96567405275373]}}]}